[{"OBJECT_NAME":"MESON-1","OBJECT_ID":"2024-043AK","EPOCH":"2026-03-09T21:36:16.481664","MEAN_MOTION":15.29893494,"ECCENTRICITY":0.00095452,"INCLINATION":97.5469,"RA_OF_ASC_NODE":205.2839,"ARG_OF_PERICENTER":227.1432,"MEAN_ANOMALY":132.9007,"EPHEMERIS_TYPE":0,"CLASSIFICATION_TYPE":"U","NORAD_CAT_ID":59131,"ELEMENT_SET_NO":999,"REV_AT_EPOCH":11189,"BSTAR":0.0002974823,"MEAN_MOTION_DOT":8.544e-5,"MEAN_MOTION_DDOT":0},{"OBJECT_NAME":"STARLINK-35636","OBJECT_ID":"2025-240Q","EPOCH":"2026-03-09T06:57:26.020800","MEAN_MOTION":15.30193151,"ECCENTRICITY":0.00012597,"INCLINATION":53.1594,"RA_OF_ASC_NODE":64.9254,"ARG_OF_PERICENTER":85.355,"MEAN_ANOMALY":274.7594,"EPHEMERIS_TYPE":0,"CLASSIFICATION_TYPE":"U","NORAD_CAT_ID":66160,"ELEMENT_SET_NO":999,"REV_AT_EPOCH":2192,"BSTAR":0.00096814217,"MEAN_MOTION_DOT":0.00028418,"MEAN_MOTION_DDOT":0}]
